[
    {
    "name": "Afghanistan",
    "dial_code": "+93",
    "code": "ğŸ‡¦ğŸ‡«"
    },
    {
    "name": "Aland Islands",
    "dial_code": "+358",
    "code": "ğŸ‡¦ğŸ‡½"
    },
    {
    "name": "Albania",
    "dial_code": "+355",
    "code": "ğŸ‡¦ğŸ‡±"
    },
    {
    "name": "Algeria",
    "dial_code": "+213",
    "code": "ğŸ‡©ğŸ‡¿"
    },
    {
    "name": "AmericanSamoa",
    "dial_code": "+1684",
    "code": "ğŸ‡¦ğŸ‡¸"
    },
    {
    "name": "Andorra",
    "dial_code": "+376",
    "code": "ğŸ‡¦ğŸ‡©"
    },
    {
    "name": "Angola",
    "dial_code": "+244",
    "code": "ğŸ‡¦ğŸ‡´"
    },
    {
    "name": "Anguilla",
    "dial_code": "+1264",
    "code": "ğŸ‡¦ğŸ‡®"
    },
    {
    "name": "Antarctica",
    "dial_code": "+672",
    "code": "ğŸ‡¦ğŸ‡¶"
    },
    {
    "name": "Antigua and Barbuda",
    "dial_code": "+1268",
    "code": "ğŸ‡¦ğŸ‡¬"
    },
    {
    "name": "Argentina",
    "dial_code": "+54",
    "code": "ğŸ‡¦ğŸ‡·"
    },
    {
    "name": "Armenia",
    "dial_code": "+374",
    "code": "ğŸ‡¦ğŸ‡²"
    },
    {
    "name": "Aruba",
    "dial_code": "+297",
    "code": "ğŸ‡¦ğŸ‡¼"
    },
    {
    "name": "Australia",
    "dial_code": "+61",
    "code": "ğŸ‡¦ğŸ‡º"
    },
    {
    "name": "Austria",
    "dial_code": "+43",
    "code": "ğŸ‡¦ğŸ‡¹"
    },
    {
    "name": "Azerbaijan",
    "dial_code": "+994",
    "code": "ğŸ‡¦ğŸ‡¿"
    },
    {
    "name": "Bahamas",
    "dial_code": "+1242",
    "code": "ğŸ‡§ğŸ‡¸"
    },
    {
    "name": "Bahrain",
    "dial_code": "+973",
    "code": "ğŸ‡§ğŸ‡­"
    },
    {
    "name": "Bangladesh",
    "dial_code": "+880",
    "code": "ğŸ‡§ğŸ‡©"
    },
    {
    "name": "Barbados",
    "dial_code": "+1246",
    "code": "ğŸ‡§ğŸ‡§"
    },
    {
    "name": "Belarus",
    "dial_code": "+375",
    "code": "ğŸ‡§ğŸ‡¾"
    },
    {
    "name": "Belgium",
    "dial_code": "+32",
    "code": "ğŸ‡§ğŸ‡ª"
    },
    {
    "name": "Belize",
    "dial_code": "+501",
    "code": "ğŸ‡§ğŸ‡¿"
    },
    {
    "name": "Benin",
    "dial_code": "+229",
    "code": "ğŸ‡§ğŸ‡¯"
    },
    {
    "name": "Bermuda",
    "dial_code": "+1441",
    "code": "ğŸ‡§ğŸ‡²"
    },
    {
    "name": "Bhutan",
    "dial_code": "+975",
    "code": "ğŸ‡§ğŸ‡¹"
    },
    {
    "name": "Bolivia, Plurinational State of",
    "dial_code": "+591",
    "code": "ğŸ‡§ğŸ‡´"
    },
    {
    "name": "Bosnia and Herzegovina",
    "dial_code": "+387",
    "code": "ğŸ‡§ğŸ‡¦"
    },
    {
    "name": "Botswana",
    "dial_code": "+267",
    "code": "ğŸ‡§ğŸ‡¼"
    },
    {
    "name": "Brazil",
    "dial_code": "+55",
    "code": "ğŸ‡§ğŸ‡·"
    },
    {
    "name": "British Indian Ocean Territory",
    "dial_code": "+246",
    "code": "ğŸ‡®ğŸ‡´"
    },
    {
    "name": "Brunei Darussalam",
    "dial_code": "+673",
    "code": "ğŸ‡§ğŸ‡³"
    },
    {
    "name": "Bulgaria",
    "dial_code": "+359",
    "code": "ğŸ‡§ğŸ‡¬"
    },
    {
    "name": "Burkina Faso",
    "dial_code": "+226",
    "code": "ğŸ‡§ğŸ‡«"
    },
    {
    "name": "Burundi",
    "dial_code": "+257",
    "code": "ğŸ‡§ğŸ‡®"
    },
    {
    "name": "Cambodia",
    "dial_code": "+855",
    "code": "ğŸ‡°ğŸ‡­"
    },
    {
    "name": "Cameroon",
    "dial_code": "+237",
    "code": "ğŸ‡¨ğŸ‡²"
    },
    {
    "name": "Canada",
    "dial_code": "+1",
    "code": "ğŸ‡¨ğŸ‡¦"
    },
    {
    "name": "Cape Verde",
    "dial_code": "+238",
    "code": "ğŸ‡¨ğŸ‡»"
    },
    {
    "name": "Cayman Islands",
    "dial_code": "+ 345",
    "code": "ğŸ‡°ğŸ‡¾"
    },
    {
    "name": "Central African Republic",
    "dial_code": "+236",
    "code": "ğŸ‡¨ğŸ‡«"
    },
    {
    "name": "Chad",
    "dial_code": "+235",
    "code": "ğŸ‡¹ğŸ‡©"
    },
    {
    "name": "Chile",
    "dial_code": "+56",
    "code": "ğŸ‡¨ğŸ‡±"
    },
    {
    "name": "China",
    "dial_code": "+86",
    "code": "ğŸ‡¨ğŸ‡³"
    },
    {
    "name": "Christmas Island",
    "dial_code": "+61",
    "code": "ğŸ‡¨ğŸ‡½"
    },
    {
    "name": "Cocos (Keeling) Islands",
    "dial_code": "+61",
    "code": "ğŸ‡¨ğŸ‡¨"
    },
    {
    "name": "Colombia",
    "dial_code": "+57",
    "code": "ğŸ‡¨ğŸ‡´"
    },
    {
    "name": "Comoros",
    "dial_code": "+269",
    "code": "ğŸ‡°ğŸ‡²"
    },
    {
    "name": "Congo",
    "dial_code": "+242",
    "code": "ğŸ‡¨ğŸ‡¬"
    },
    {
    "name": "Congo, The Democratic Republic of the Congo",
    "dial_code": "+243",
    "code": "ğŸ‡¨ğŸ‡©"
    },
    {
    "name": "Cook Islands",
    "dial_code": "+682",
    "code": "ğŸ‡¨ğŸ‡°"
    },
    {
    "name": "Costa Rica",
    "dial_code": "+506",
    "code": "ğŸ‡¨ğŸ‡·"
    },
    {
    "name": "Cote d'Ivoire",
    "dial_code": "+225",
    "code": "ğŸ‡¨ğŸ‡®"
    },
    {
    "name": "Croatia",
    "dial_code": "+385",
    "code": "ğŸ‡­ğŸ‡·"
    },
    {
    "name": "Cuba",
    "dial_code": "+53",
    "code": "ğŸ‡¨ğŸ‡º"
    },
    {
    "name": "Cyprus",
    "dial_code": "+357",
    "code": "ğŸ‡¨ğŸ‡¾"
    },
    {
    "name": "Czech Republic",
    "dial_code": "+420",
    "code": "ğŸ‡¨ğŸ‡¿"
    },
    {
    "name": "Denmark",
    "dial_code": "+45",
    "code": "ğŸ‡©ğŸ‡°"
    },
    {
    "name": "Djibouti",
    "dial_code": "+253",
    "code": "ğŸ‡©ğŸ‡¯"
    },
    {
    "name": "Dominica",
    "dial_code": "+1767",
    "code": "ğŸ‡©ğŸ‡²"
    },
    {
    "name": "Dominican Republic",
    "dial_code": "+1849",
    "code": "ğŸ‡©ğŸ‡´"
    },
    {
    "name": "Ecuador",
    "dial_code": "+593",
    "code": "ğŸ‡ªğŸ‡¨"
    },
    {
    "name": "Egypt",
    "dial_code": "+20",
    "code": "ğŸ‡ªğŸ‡¬"
    },
    {
    "name": "El Salvador",
    "dial_code": "+503",
    "code": "ğŸ‡¸ğŸ‡»"
    },
    {
    "name": "Equatorial Guinea",
    "dial_code": "+240",
    "code": "ğŸ‡¬ğŸ‡¶"
    },
    {
    "name": "Eritrea",
    "dial_code": "+291",
    "code": "ğŸ‡ªğŸ‡·"
    },
    {
    "name": "Estonia",
    "dial_code": "+372",
    "code": "ğŸ‡ªğŸ‡ª"
    },
    {
    "name": "Ethiopia",
    "dial_code": "+251",
    "code": "ğŸ‡ªğŸ‡¹"
    },
    {
    "name": "Falkland Islands (Malvinas)",
    "dial_code": "+500",
    "code": "ğŸ‡«ğŸ‡°"
    },
    {
    "name": "Faroe Islands",
    "dial_code": "+298",
    "code": "ğŸ‡«ğŸ‡´"
    },
    {
    "name": "Fiji",
    "dial_code": "+679",
    "code": "ğŸ‡«ğŸ‡¯"
    },
    {
    "name": "Finland",
    "dial_code": "+358",
    "code": "ğŸ‡«ğŸ‡®"
    },
    {
    "name": "France",
    "dial_code": "+33",
    "code": "ğŸ‡«ğŸ‡·"
    },
    {
    "name": "French Guiana",
    "dial_code": "+594",
    "code": "ğŸ‡¬ğŸ‡«"
    },
    {
    "name": "French Polynesia",
    "dial_code": "+689",
    "code": "ğŸ‡µğŸ‡«"
    },
    {
    "name": "Gabon",
    "dial_code": "+241",
    "code": "ğŸ‡¬ğŸ‡¦"
    },
    {
    "name": "Gambia",
    "dial_code": "+220",
    "code": "ğŸ‡¬ğŸ‡²"
    },
    {
    "name": "Georgia",
    "dial_code": "+995",
    "code": "ğŸ‡¬ğŸ‡ª"
    },
    {
    "name": "Germany",
    "dial_code": "+49",
    "code": "ğŸ‡©ğŸ‡ª"
    },
    {
    "name": "Ghana",
    "dial_code": "+233",
    "code": "ğŸ‡¬ğŸ‡­"
    },
    {
    "name": "Gibraltar",
    "dial_code": "+350",
    "code": "ğŸ‡¬ğŸ‡®"
    },
    {
    "name": "Greece",
    "dial_code": "+30",
    "code": "ğŸ‡¬ğŸ‡·"
    },
    {
    "name": "Greenland",
    "dial_code": "+299",
    "code": "ğŸ‡¬ğŸ‡±"
    },
    {
    "name": "Grenada",
    "dial_code": "+1473",
    "code": "ğŸ‡¬ğŸ‡©"
    },
    {
    "name": "Guadeloupe",
    "dial_code": "+590",
    "code": "ğŸ‡¬ğŸ‡µ"
    },
    {
    "name": "Guam",
    "dial_code": "+1671",
    "code": "ğŸ‡¬ğŸ‡º"
    },
    {
    "name": "Guatemala",
    "dial_code": "+502",
    "code": "ğŸ‡¬ğŸ‡¹"
    },
    {
    "name": "Guernsey",
    "dial_code": "+44",
    "code": "ğŸ‡¬ğŸ‡¬"
    },
    {
    "name": "Guinea",
    "dial_code": "+224",
    "code": "ğŸ‡¬ğŸ‡³"
    },
    {
    "name": "Guinea-Bissau",
    "dial_code": "+245",
    "code": "ğŸ‡¬ğŸ‡¼"
    },
    {
    "name": "Guyana",
    "dial_code": "+595",
    "code": "ğŸ‡¬ğŸ‡¾"
    },
    {
    "name": "Haiti",
    "dial_code": "+509",
    "code": "ğŸ‡­ğŸ‡¹"
    },
    {
    "name": "Holy See (Vatican City State)",
    "dial_code": "+379",
    "code": "ğŸ‡»ğŸ‡¦"
    },
    {
    "name": "Honduras",
    "dial_code": "+504",
    "code": "ğŸ‡­ğŸ‡³"
    },
    {
    "name": "Hong Kong",
    "dial_code": "+852",
    "code": "ğŸ‡­ğŸ‡°"
    },
    {
    "name": "Hungary",
    "dial_code": "+36",
    "code": "ğŸ‡­ğŸ‡º"
    },
    {
    "name": "Iceland",
    "dial_code": "+354",
    "code": "ğŸ‡®ğŸ‡¸"
    },
    {
    "name": "India",
    "dial_code": "+91",
    "code": "ğŸ‡®ğŸ‡³"
    },
    {
    "name": "Indonesia",
    "dial_code": "+62",
    "code": "ğŸ‡®ğŸ‡©"
    },
    {
    "name": "Iran, Islamic Republic of Persian Gulf",
    "dial_code": "+98",
    "code": "ğŸ‡®ğŸ‡·"
    },
    {
    "name": "Iraq",
    "dial_code": "+964",
    "code": "ğŸ‡®ğŸ‡¶"
    },
    {
    "name": "Ireland",
    "dial_code": "+353",
    "code": "ğŸ‡®ğŸ‡ª"
    },
    {
    "name": "Isle of Man",
    "dial_code": "+44",
    "code": "ğŸ‡®ğŸ‡²"
    },
    {
    "name": "Israel",
    "dial_code": "+972",
    "code": "ğŸ‡®ğŸ‡±"
    },
    {
    "name": "Italy",
    "dial_code": "+39",
    "code": "ğŸ‡®ğŸ‡¹"
    },
    {
    "name": "Jamaica",
    "dial_code": "+1876",
    "code": "ğŸ‡¯ğŸ‡²"
    },
    {
    "name": "Japan",
    "dial_code": "+81",
    "code": "ğŸ‡¯ğŸ‡µ"
    },
    {
    "name": "Jersey",
    "dial_code": "+44",
    "code": "ğŸ‡¯ğŸ‡ª"
    },
    {
    "name": "Jordan",
    "dial_code": "+962",
    "code": "ğŸ‡¯ğŸ‡´"
    },
    {
    "name": "Kazakhstan",
    "dial_code": "+77",
    "code": "ğŸ‡°ğŸ‡¿"
    },
    {
    "name": "Kenya",
    "dial_code": "+254",
    "code": "ğŸ‡°ğŸ‡ª"
    },
    {
    "name": "Kiribati",
    "dial_code": "+686",
    "code": "ğŸ‡°ğŸ‡®"
    },
    {
    "name": "Korea, Democratic People's Republic of Korea",
    "dial_code": "+850",
    "code": "ğŸ‡°ğŸ‡µ"
    },
    {
    "name": "Korea, Republic of South Korea",
    "dial_code": "+82",
    "code": "ğŸ‡°ğŸ‡·"
    },
    {
    "name": "Kuwait",
    "dial_code": "+965",
    "code": "ğŸ‡°ğŸ‡¼"
    },
    {
    "name": "Kyrgyzstan",
    "dial_code": "+996",
    "code": "ğŸ‡°ğŸ‡¬"
    },
    {
    "name": "Laos",
    "dial_code": "+856",
    "code": "ğŸ‡±ğŸ‡¦"
    },
    {
    "name": "Latvia",
    "dial_code": "+371",
    "code": "ğŸ‡±ğŸ‡»"
    },
    {
    "name": "Lebanon",
    "dial_code": "+961",
    "code": "ğŸ‡±ğŸ‡§"
    },
    {
    "name": "Lesotho",
    "dial_code": "+266",
    "code": "ğŸ‡±ğŸ‡¸"
    },
    {
    "name": "Liberia",
    "dial_code": "+231",
    "code": "ğŸ‡±ğŸ‡·"
    },
    {
    "name": "Libyan Arab Jamahiriya",
    "dial_code": "+218",
    "code": "ğŸ‡±ğŸ‡¾"
    },
    {
    "name": "Liechtenstein",
    "dial_code": "+423",
    "code": "ğŸ‡±ğŸ‡®"
    },
    {
    "name": "Lithuania",
    "dial_code": "+370",
    "code": "ğŸ‡±ğŸ‡¹"
    },
    {
    "name": "Luxembourg",
    "dial_code": "+352",
    "code": "ğŸ‡±ğŸ‡º"
    },
    {
    "name": "Macao",
    "dial_code": "+853",
    "code": "ğŸ‡²ğŸ‡´"
    },
    {
    "name": "Macedonia",
    "dial_code": "+389",
    "code": "ğŸ‡²ğŸ‡°"
    },
    {
    "name": "Madagascar",
    "dial_code": "+261",
    "code": "ğŸ‡²ğŸ‡¬"
    },
    {
    "name": "Malawi",
    "dial_code": "+265",
    "code": "ğŸ‡²ğŸ‡¼"
    },
    {
    "name": "Malaysia",
    "dial_code": "+60",
    "code": "ğŸ‡²ğŸ‡¾"
    },
    {
    "name": "Maldives",
    "dial_code": "+960",
    "code": "ğŸ‡²ğŸ‡»"
    },
    {
    "name": "Mali",
    "dial_code": "+223",
    "code": "ğŸ‡²ğŸ‡±"
    },
    {
    "name": "Malta",
    "dial_code": "+356",
    "code": "ğŸ‡²ğŸ‡¹"
    },
    {
    "name": "Marshall Islands",
    "dial_code": "+692",
    "code": "ğŸ‡²ğŸ‡­"
    },
    {
    "name": "Martinique",
    "dial_code": "+596",
    "code": "ğŸ‡²ğŸ‡¶"
    },
    {
    "name": "Mauritania",
    "dial_code": "+222",
    "code": "ğŸ‡²ğŸ‡·"
    },
    {
    "name": "Mauritius",
    "dial_code": "+230",
    "code": "ğŸ‡²ğŸ‡º"
    },
    {
    "name": "Mayotte",
    "dial_code": "+262",
    "code": "ğŸ‡¾ğŸ‡¹"
    },
    {
    "name": "Mexico",
    "dial_code": "+52",
    "code": "ğŸ‡²ğŸ‡½"
    },
    {
    "name": "Micronesia, Federated States of Micronesia",
    "dial_code": "+691",
    "code": "ğŸ‡«ğŸ‡²"
    },
    {
    "name": "Moldova",
    "dial_code": "+373",
    "code": "ğŸ‡²ğŸ‡©"
    },
    {
    "name": "Monaco",
    "dial_code": "+377",
    "code": "ğŸ‡²ğŸ‡¨"
    },
    {
    "name": "Mongolia",
    "dial_code": "+976",
    "code": "ğŸ‡²ğŸ‡³"
    },
    {
    "name": "Montenegro",
    "dial_code": "+382",
    "code": "ğŸ‡²ğŸ‡ª"
    },
    {
    "name": "Montserrat",
    "dial_code": "+1664",
    "code": "ğŸ‡²ğŸ‡¸"
    },
    {
    "name": "Morocco",
    "dial_code": "+212",
    "code": "ğŸ‡²ğŸ‡¦"
    },
    {
    "name": "Mozambique",
    "dial_code": "+258",
    "code": "ğŸ‡²ğŸ‡¿"
    },
    {
    "name": "Myanmar",
    "dial_code": "+95",
    "code": "ğŸ‡²ğŸ‡²"
    },
    {
    "name": "Namibia",
    "dial_code": "+264",
    "code": "ğŸ‡³ğŸ‡¦"
    },
    {
    "name": "Nauru",
    "dial_code": "+674",
    "code": "ğŸ‡³ğŸ‡·"
    },
    {
    "name": "Nepal",
    "dial_code": "+977",
    "code": "ğŸ‡³ğŸ‡µ"
    },
    {
    "name": "Netherlands",
    "dial_code": "+31",
    "code": "ğŸ‡³ğŸ‡±"
    },
    {
    "name": "Netherlands Antilles",
    "dial_code": "+599",
    "code": "ğŸ‡³ğŸ‡±"
    },
    {
    "name": "New Caledonia",
    "dial_code": "+687",
    "code": "ğŸ‡³ğŸ‡¨"
    },
    {
    "name": "New Zealand",
    "dial_code": "+64",
    "code": "ğŸ‡³ğŸ‡¿"
    },
    {
    "name": "Nicaragua",
    "dial_code": "+505",
    "code": "ğŸ‡³ğŸ‡®"
    },
    {
    "name": "Niger",
    "dial_code": "+227",
    "code": "ğŸ‡³ğŸ‡ª"
    },
    {
    "name": "Nigeria",
    "dial_code": "+234",
    "code": "ğŸ‡³ğŸ‡¬"
    },
    {
    "name": "Niue",
    "dial_code": "+683",
    "code": "ğŸ‡³ğŸ‡º"
    },
    {
    "name": "Norfolk Island",
    "dial_code": "+672",
    "code": "ğŸ‡³ğŸ‡«"
    },
    {
    "name": "Northern Mariana Islands",
    "dial_code": "+1670",
    "code": "ğŸ‡²ğŸ‡µ"
    },
    {
    "name": "Norway",
    "dial_code": "+47",
    "code": "ğŸ‡³ğŸ‡´"
    },
    {
    "name": "Oman",
    "dial_code": "+968",
    "code": "ğŸ‡´ğŸ‡²"
    },
    {
    "name": "Pakistan",
    "dial_code": "+92",
    "code": "ğŸ‡µğŸ‡°"
    },
    {
    "name": "Palau",
    "dial_code": "+680",
    "code": "ğŸ‡µğŸ‡¼"
    },
    {
    "name": "Palestinian Territory, Occupied",
    "dial_code": "+970",
    "code": "ğŸ‡µğŸ‡¸"
    },
    {
    "name": "Panama",
    "dial_code": "+507",
    "code": "ğŸ‡µğŸ‡¦"
    },
    {
    "name": "Papua New Guinea",
    "dial_code": "+675",
    "code": "ğŸ‡µğŸ‡¬"
    },
    {
    "name": "Paraguay",
    "dial_code": "+595",
    "code": "ğŸ‡µğŸ‡¾"
    },
    {
    "name": "Peru",
    "dial_code": "+51",
    "code": "ğŸ‡µğŸ‡ª"
    },
    {
    "name": "Philippines",
    "dial_code": "+63",
    "code": "ğŸ‡µğŸ‡­"
    },
    {
    "name": "Pitcairn",
    "dial_code": "+872",
    "code": "ğŸ‡µğŸ‡³"
    },
    {
    "name": "Poland",
    "dial_code": "+48",
    "code": "ğŸ‡µğŸ‡±"
    },
    {
    "name": "Portugal",
    "dial_code": "+351",
    "code": "ğŸ‡µğŸ‡¹"
    },
    {
    "name": "Puerto Rico",
    "dial_code": "+1939",
    "code": "ğŸ‡µğŸ‡·"
    },
    {
    "name": "Qatar",
    "dial_code": "+974",
    "code": "ğŸ‡¶ğŸ‡¦"
    },
    {
    "name": "Romania",
    "dial_code": "+40",
    "code": "ğŸ‡·ğŸ‡´"
    },
    {
    "name": "Russia",
    "dial_code": "+7",
    "code": "ğŸ‡·ğŸ‡º"
    },
    {
    "name": "Rwanda",
    "dial_code": "+250",
    "code": "ğŸ‡·ğŸ‡¼"
    },
    {
    "name": "Reunion",
    "dial_code": "+262",
    "code": "ğŸ‡·ğŸ‡ª"
    },
    {
    "name": "Saint Barthelemy",
    "dial_code": "+590",
    "code": "ğŸ‡§ğŸ‡±"
    },
    {
    "name": "Saint Helena, Ascension and Tristan Da Cunha",
    "dial_code": "+290",
    "code": "ğŸ‡¸ğŸ‡­"
    },
    {
    "name": "Saint Kitts and Nevis",
    "dial_code": "+1869",
    "code": "ğŸ‡°ğŸ‡³"
    },
    {
    "name": "Saint Lucia",
    "dial_code": "+1758",
    "code": "ğŸ‡±ğŸ‡¨"
    },
    {
    "name": "Saint Martin",
    "dial_code": "+590",
    "code": "ğŸ‡²ğŸ‡«"
    },
    {
    "name": "Saint Pierre and Miquelon",
    "dial_code": "+508",
    "code": "ğŸ‡µğŸ‡²"
    },
    {
    "name": "Saint Vincent and the Grenadines",
    "dial_code": "+1784",
    "code": "ğŸ‡»ğŸ‡¨"
    },
    {
    "name": "Samoa",
    "dial_code": "+685",
    "code": "ğŸ‡¼ğŸ‡¸"
    },
    {
    "name": "San Marino",
    "dial_code": "+378",
    "code": "ğŸ‡¸ğŸ‡²"
    },
    {
    "name": "Sao Tome and Principe",
    "dial_code": "+239",
    "code": "ğŸ‡¸ğŸ‡¹"
    },
    {
    "name": "Saudi Arabia",
    "dial_code": "+966",
    "code": "ğŸ‡¸ğŸ‡¦"
    },
    {
    "name": "Senegal",
    "dial_code": "+221",
    "code": "ğŸ‡¸ğŸ‡³"
    },
    {
    "name": "Serbia",
    "dial_code": "+381",
    "code": "ğŸ‡·ğŸ‡¸"
    },
    {
    "name": "Seychelles",
    "dial_code": "+248",
    "code": "ğŸ‡¸ğŸ‡¨"
    },
    {
    "name": "Sierra Leone",
    "dial_code": "+232",
    "code": "ğŸ‡¸ğŸ‡±"
    },
    {
    "name": "Singapore",
    "dial_code": "+65",
    "code": "ğŸ‡¸ğŸ‡¬"
    },
    {
    "name": "Slovakia",
    "dial_code": "+421",
    "code": "ğŸ‡¸ğŸ‡°"
    },
    {
    "name": "Slovenia",
    "dial_code": "+386",
    "code": "ğŸ‡¸ğŸ‡®"
    },
    {
    "name": "Solomon Islands",
    "dial_code": "+677",
    "code": "ğŸ‡¸ğŸ‡§"
    },
    {
    "name": "Somalia",
    "dial_code": "+252",
    "code": "ğŸ‡¸ğŸ‡´"
    },
    {
    "name": "South Africa",
    "dial_code": "+27",
    "code": "ğŸ‡¿ğŸ‡¦"
    },
    {
    "name": "South Sudan",
    "dial_code": "+211",
    "code": "ğŸ‡¸ğŸ‡¸"
    },
    {
    "name": "South Georgia and the South Sandwich Islands",
    "dial_code": "+500",
    "code": "ğŸ‡¬ğŸ‡¸"
    },
    {
    "name": "Spain",
    "dial_code": "+34",
    "code": "ğŸ‡ªğŸ‡¸"
    },
    {
    "name": "Sri Lanka",
    "dial_code": "+94",
    "code": "ğŸ‡±ğŸ‡°"
    },
    {
    "name": "Sudan",
    "dial_code": "+249",
    "code": "ğŸ‡¸ğŸ‡©"
    },
    {
    "name": "Suriname",
    "dial_code": "+597",
    "code": "ğŸ‡¸ğŸ‡·"
    },
    {
    "name": "Svalbard and Jan Mayen",
    "dial_code": "+47",
    "code": "ğŸ‡¸ğŸ‡¯"
    },
    {
    "name": "Swaziland",
    "dial_code": "+268",
    "code": "ğŸ‡¸ğŸ‡¿"
    },
    {
    "name": "Sweden",
    "dial_code": "+46",
    "code": "ğŸ‡¸ğŸ‡ª"
    },
    {
    "name": "Switzerland",
    "dial_code": "+41",
    "code": "ğŸ‡¨ğŸ‡­"
    },
    {
    "name": "Syrian Arab Republic",
    "dial_code": "+963",
    "code": "ğŸ‡¸ğŸ‡¾"
    },
    {
    "name": "Taiwan",
    "dial_code": "+886",
    "code": "ğŸ‡¹ğŸ‡¼"
    },
    {
    "name": "Tajikistan",
    "dial_code": "+992",
    "code": "ğŸ‡¹ğŸ‡¯"
    },
    {
    "name": "Tanzania, United Republic of Tanzania",
    "dial_code": "+255",
    "code": "ğŸ‡¹ğŸ‡¿"
    },
    {
    "name": "Thailand",
    "dial_code": "+66",
    "code": "ğŸ‡¹ğŸ‡­"
    },
    {
    "name": "Timor-Leste",
    "dial_code": "+670",
    "code": "ğŸ‡¹ğŸ‡±"
    },
    {
    "name": "Togo",
    "dial_code": "+228",
    "code": "ğŸ‡¹ğŸ‡¬"
    },
    {
    "name": "Tokelau",
    "dial_code": "+690",
    "code": "ğŸ‡¹ğŸ‡°"
    },
    {
    "name": "Tonga",
    "dial_code": "+676",
    "code": "ğŸ‡¹ğŸ‡´"
    },
    {
    "name": "Trinidad and Tobago",
    "dial_code": "+1868",
    "code": "ğŸ‡¹ğŸ‡¹"
    },
    {
    "name": "Tunisia",
    "dial_code": "+216",
    "code": "ğŸ‡¹ğŸ‡³"
    },
    {
    "name": "Turkey",
    "dial_code": "+90",
    "code": "ğŸ‡¹ğŸ‡·"
    },
    {
    "name": "Turkmenistan",
    "dial_code": "+993",
    "code": "ğŸ‡¹ğŸ‡²"
    },
    {
    "name": "Turks and Caicos Islands",
    "dial_code": "+1649",
    "code": "ğŸ‡¹ğŸ‡¨"
    },
    {
    "name": "Tuvalu",
    "dial_code": "+688",
    "code": "ğŸ‡¹ğŸ‡»"
    },
    {
    "name": "Uganda",
    "dial_code": "+256",
    "code": "ğŸ‡ºğŸ‡¬"
    },
    {
    "name": "Ukraine",
    "dial_code": "+380",
    "code": "ğŸ‡ºğŸ‡¦"
    },
    {
    "name": "Venezuela, Bolivarian Republic of Venezuela",
    "dial_code": "+58",
    "code": "ğŸ‡»ğŸ‡ª"
    },
    {
    "name": "Vietnam",
    "dial_code": "+84",
    "code": "ğŸ‡»ğŸ‡³"
    },
    {
    "name": "Virgin Islands, British",
    "dial_code": "+1284",
    "code": "ğŸ‡»ğŸ‡¬"
    },
    {
    "name": "Virgin Islands, U.S.",
    "dial_code": "+1340",
    "code": "ğŸ‡»ğŸ‡®"
    },
    {
    "name": "Wallis and Futuna",
    "dial_code": "+681",
    "code": "ğŸ‡¼ğŸ‡«"
    },
    {
    "name": "Yemen",
    "dial_code": "+967",
    "code": "ğŸ‡¾ğŸ‡ª"
    },
    {
    "name": "Zambia",
    "dial_code": "+260",
    "code": "ğŸ‡¿ğŸ‡²"
    },
    {
    "name": "Zimbabwe",
    "dial_code": "+263",
    "code": "ğŸ‡¿ğŸ‡¼"
    }
    ]